{
    "links": {
        "self": "http://www.neowsapp.com/rest/v1/neo/3989303?api_key=iIulBulltgU6a56xZRHN4H3l9WmuAYTsLGpBGhQ2"
    },
    "id": "3989303",
    "neo_reference_id": "3989303",
    "name": "(2020 BR13)",
    "designation": "2020 BR13",
    "nasa_jpl_url": "http://ssd.jpl.nasa.gov/sbdb.cgi?sstr=3989303",
    "absolute_magnitude_h": 20.969,
    "estimated_diameter": {
        "kilometers": {
            "estimated_diameter_min": 0.1701198443,
            "estimated_diameter_max": 0.3803995362
        },
        "meters": {
            "estimated_diameter_min": 170.1198443184,
            "estimated_diameter_max": 380.3995362176
        },
        "miles": {
            "estimated_diameter_min": 0.1057075378,
            "estimated_diameter_max": 0.2363692402
        },
        "feet": {
            "estimated_diameter_min": 558.1359900336,
            "estimated_diameter_max": 1248.0300144043
        }
    },
    "is_potentially_hazardous_asteroid": false,
    "close_approach_data": [
        {
            "close_approach_date": "2008-01-09",
            "close_approach_date_full": "2008-Jan-09 08:37",
            "epoch_date_close_approach": 1199867820000,
            "relative_velocity": {
                "kilometers_per_second": "7.7129069288",
                "kilometers_per_hour": "27766.4649437746",
                "miles_per_hour": "17253.0015090915"
            },
            "miss_distance": {
                "astronomical": "0.4431433998",
                "lunar": "172.3827825222",
                "kilometers": "66293308.714638426",
                "miles": "41192751.9019892388"
            },
            "orbiting_body": "Earth"
        },
        {
            "close_approach_date": "2011-01-12",
            "close_approach_date_full": "2011-Jan-12 06:42",
            "epoch_date_close_approach": 1294814520000,
            "relative_velocity": {
                "kilometers_per_second": "7.9770586585",
                "kilometers_per_hour": "28717.4111704282",
                "miles_per_hour": "17843.8825130919"
            },
            "miss_distance": {
                "astronomical": "0.4530979226",
                "lunar": "176.2550918914",
                "kilometers": "67782484.122384862",
                "miles": "42118082.5922086156"
            },
            "orbiting_body": "Earth"
        },
        {
            "close_approach_date": "2014-01-14",
            "close_approach_date_full": "2014-Jan-14 11:29",
            "epoch_date_close_approach": 1389698940000,
            "relative_velocity": {
                "kilometers_per_second": "8.1945373801",
                "kilometers_per_hour": "29500.3345684965",
                "miles_per_hour": "18330.3606656305"
            },
            "miss_distance": {
                "astronomical": "0.461062014",
                "lunar": "179.353123446",
                "kilometers": "68973895.23231018",
                "miles": "42858391.127353284"
            },
            "orbiting_body": "Earth"
        },
        {
            "close_approach_date": "2017-01-16",
            "close_approach_date_full": "2017-Jan-16 22:57",
            "epoch_date_close_approach": 1484607420000,
            "relative_velocity": {
                "kilometers_per_second": "8.4281211646",
                "kilometers_per_hour": "30341.23619251",
                "miles_per_hour": "18852.8642330627"
            },
            "miss_distance": {
                "astronomical": "0.4749272469",
                "lunar": "184.7466990441",
                "kilometers": "71048104.541204103",
                "miles": "44147245.0269505014"
            },
            "orbiting_body": "Earth"
        },
        {
            "close_approach_date": "2020-01-20",
            "close_approach_date_full": "2020-Jan-20 02:25",
            "epoch_date_close_approach": 1579487100000,
            "relative_velocity": {
                "kilometers_per_second": "8.6606942032",
                "kilometers_per_hour": "31178.4991314236",
                "miles_per_hour": "19373.1068630782"
            },
            "miss_distance": {
                "astronomical": "0.4857122641",
                "lunar": "188.9420707349",
                "kilometers": "72661520.142237467",
                "miles": "45149774.9935003646"
            },
            "orbiting_body": "Earth"
        }
    ],
    "orbital_data": {
        "orbit_id": "5",
        "orbit_determination_date": "2020-03-11 05:59:33",
        "first_observation_date": "2020-01-25",
        "last_observation_date": "2020-02-25",
        "data_arc_in_days": 31,
        "observations_used": 30,
        "orbit_uncertainty": "6",
        "minimum_orbit_intersection": ".412302",
        "jupiter_tisserand_invariant": "3.584",
        "epoch_osculation": "2459000.5",
        "eccentricity": ".4202951854852857",
        "semi_major_axis": "2.07606631397108",
        "inclination": "19.91048166539538",
        "ascending_node_longitude": "161.8096847435797",
        "orbital_period": "1092.597643251453",
        "perihelion_distance": "1.203505637460851",
        "perihelion_argument": "267.1381433322085",
        "aphelion_distance": "2.948626990481308",
        "perihelion_time": "2458799.898042358867",
        "mean_anomaly": "66.09633948678362",
        "mean_motion": ".3294900023110782",
        "equinox": "J2000",
        "orbit_class": {
            "orbit_class_type": "AMO",
            "orbit_class_description": "Near-Earth asteroid orbits similar to that of 1221 Amor",
            "orbit_class_range": "1.017 AU < q (perihelion) < 1.3 AU"
        }
    },
    "is_sentry_object": false
}